H1 CPF  1  DLR 2022 02 05 10  5362 technosat            
H2  1704205 6203    42829 2022 02 05 00 00 00 2022 02 12 00 00 00    60 1 1  0 0 0
H9
10 0 59618  64800.000000  0      -3652919.512      -3109882.953      -5076307.717
10 0 59618  64860.000000  0      -3960179.132      -3230135.830      -4759929.215
10 0 59618  64920.000000  0      -4251848.788      -3334251.461      -4423487.399
10 0 59618  64980.000000  0      -4526551.725      -3421925.823      -4068386.081
10 0 59618  65040.000000  0      -4782977.895      -3492934.730      -3696109.844
10 0 59618  65100.000000  0      -5019890.432      -3547134.425      -3308218.112
10 0 59618  65160.000000  0      -5236131.881      -3584461.790      -2906338.848
10 0 59618  65220.000000  0      -5430630.140      -3604934.169      -2492161.875
10 0 59618  65280.000000  0      -5602404.026      -3608648.778      -2067431.838
10 0 59618  65340.000000  0      -5750568.467      -3595781.720      -1633940.932
10 0 59618  65400.000000  0      -5874339.354      -3566586.660      -1193521.325
10 0 59618  65460.000000  0      -5973037.892      -3521393.051       -748037.294
10 0 59618  65520.000000  0      -6046094.487      -3460603.994       -299377.224
10 0 59618  65580.000000  0      -6093052.169      -3384693.745        150554.563
10 0 59618  65640.000000  0      -6113569.490      -3294204.867        599846.166
10 0 59618  65700.000000  0      -6107422.819      -3189745.009       1046586.556
10 0 59618  65760.000000  0      -6074508.026      -3071983.345       1488874.041
10 0 59618  65820.000000  0      -6014841.560      -2941646.682       1924824.686
10 0 59618  65880.000000  0      -5928560.918      -2799515.281       2352580.606
10 0 59618  65940.000000  0      -5815924.590      -2646418.490       2770318.100
10 0 59618  66000.000000  0      -5677311.460      -2483230.179       3176255.755
10 0 59618  66060.000000  0      -5513219.508      -2310863.893       3568662.393
10 0 59618  66120.000000  0      -5324263.865      -2130267.783       3945864.700
10 0 59618  66180.000000  0      -5111174.305      -1942419.440       4306254.496
10 0 59618  66240.000000  0      -4874792.228      -1748320.647       4648295.675
10 0 59618  66300.000000  0      -4616067.134      -1548992.091       4970530.799
10 0 59618  66360.000000  0      -4336052.611      -1345468.035       5271587.342
10 0 59618  66420.000000  0      -4035901.860      -1138790.983       5550183.580
10 0 59618  66480.000000  0      -3716862.703       -930006.319       5805134.106
10 0 59618  66540.000000  0      -3380272.123       -720156.970       6035354.839
10 0 59618  66600.000000  0      -3027550.402       -510278.161       6239867.606
10 0 59618  66660.000000  0      -2660194.819       -301392.260       6417804.169
10 0 59618  66720.000000  0      -2279773.057        -94503.811       6568409.737
10 0 59618  66780.000000  0      -1887916.332        109405.260       6691046.015
10 0 59618  66840.000000  0      -1486312.253        309380.292       6785193.802
10 0 59618  66900.000000  0      -1076697.438        504498.379       6850455.083
10 0 59618  66960.000000  0       -660849.896        693872.641       6886554.621
10 0 59618  67020.000000  0       -240581.219        876656.276       6893341.032
10 0 59618  67080.000000  0        182271.368       1052046.363       6870787.371
10 0 59618  67140.000000  0        605853.109       1219287.428       6818991.248
10 0 59618  67200.000000  0       1028299.959       1377674.763       6738174.386
10 0 59618  67260.000000  0       1447746.843       1526557.418       6628681.649
10 0 59618  67320.000000  0       1862335.959       1665340.886       6490979.605
10 0 59618  67380.000000  0       2270225.065       1793489.495       6325654.602
10 0 59618  67440.000000  0       2669595.764       1910528.504       6133410.414
10 0 59618  67500.000000  0       3058661.805       2016045.883       5915065.337
10 0 59618  67560.000000  0       3435677.235       2109693.739       5671548.741
10 0 59618  67620.000000  0       3798944.362       2191189.408       5403897.170
10 0 59618  67680.000000  0       4146821.526       2260316.247       5113250.016
10 0 59618  67740.000000  0       4477730.701       2316924.092       4800844.786
10 0 59618  67800.000000  0       4790164.888       2360929.382       4468011.918
10 0 59618  67860.000000  0       5082695.285       2392314.930       4116169.188
10 0 59618  67920.000000  0       5353978.289       2411129.313       3746815.560
10 0 59618  67980.000000  0       5602761.760       2417485.850       3361524.422
10 0 59618  68040.000000  0       5827890.747       2411561.311       2961936.962
10 0 59618  68100.000000  0       6028313.216       2393594.357       2549755.149
10 0 59618  68160.000000  0       6203085.163       2363883.615       2126734.260
10 0 59618  68220.000000  0       6351375.212       2322785.429       1694675.163
10 0 59618  68280.000000  0       6472468.651       2270711.268       1255416.403
10 0 59618  68340.000000  0       6565770.903       2208124.881        810826.125
10 0 59618  68400.000000  0       6630810.410       2135539.232        362793.869
10 0 59618  68460.000000  0       6667240.931       2053513.186        -86777.766
10 0 59618  68520.000000  0       6674843.131       1962647.927       -535981.518
10 0 59618  68580.000000  0       6653525.544       1863583.188       -982913.695
10 0 59618  68640.000000  0       6603325.072       1756993.316      -1425682.333
10 0 59618  68700.000000  0       6524406.941       1643583.195      -1862415.368
10 0 59618  68760.000000  0       6417063.944       1524084.026      -2291268.789
10 0 59618  68820.000000  0       6281714.963       1399249.003      -2710434.529
10 0 59618  68880.000000  0       6118902.965       1269848.936      -3118148.077
10 0 59618  68940.000000  0       5929292.450       1136667.827      -3512695.886
10 0 59618  69000.000000  0       5713666.319       1000498.442      -3892422.502
10 0 59618  69060.000000  0       5472922.206        862137.904      -4255737.367
10 0 59618  69120.000000  0       5208068.311        722383.317      -4601121.248
10 0 59618  69180.000000  0       4920218.826        582027.456      -4927132.274
10 0 59618  69240.000000  0       4610588.939        441854.541      -5232411.639
10 0 59618  69300.000000  0       4280489.418        302636.131      -5515688.902
10 0 59618  69360.000000  0       3931320.856        165127.149      -5775786.898
10 0 59618  69420.000000  0       3564567.567         30062.049      -6011626.285
10 0 59618  69480.000000  0       3181791.089       -101848.869      -6222229.665
10 0 59618  69540.000000  0       2784623.446       -229922.977      -6406725.162
10 0 59618  69600.000000  0       2374760.217       -353508.643      -6564349.612
10 0 59618  69660.000000  0       1953953.410       -471988.337      -6694451.346
10 0 59618  69720.000000  0       1524004.153       -584781.559      -6796492.623
10 0 59618  69780.000000  0       1086755.107       -691347.552      -6870051.643
10 0 59618  69840.000000  0        644082.711       -791187.732      -6914824.038
10 0 59618  69900.000000  0        197889.392       -883847.891      -6930623.912
10 0 59618  69960.000000  0       -249904.291       -968920.174      -6917384.499
10 0 59618  70020.000000  0       -697367.585      -1046044.816      -6875158.491
10 0 59618  70080.000000  0      -1142567.634      -1114911.629      -6804117.904
10 0 59618  70140.000000  0      -1583577.555      -1175261.207      -6704553.471
10 0 59618  70200.000000  0      -2018484.538      -1226885.896      -6576873.626
10 0 59618  70260.000000  0      -2445397.884      -1269630.476      -6421602.961
10 0 59618  70320.000000  0      -2862456.902      -1303392.582      -6239380.394
10 0 59618  70380.000000  0      -3267838.846      -1328122.882      -6030956.984
10 0 59618  70440.000000  0      -3659766.840      -1343825.002      -5797193.294
10 0 59618  70500.000000  0      -4036517.708      -1350555.150      -5539056.236
10 0 59618  70560.000000  0      -4396429.592      -1348421.462      -5257615.466
10 0 59618  70620.000000  0      -4737909.366      -1337583.104      -4954039.371
10 0 59618  70680.000000  0      -5059439.854      -1318249.091      -4629590.640
10 0 59618  70740.000000  0      -5359586.795      -1290676.845      -4285621.422
10 0 59618  70800.000000  0      -5637005.553      -1255170.504      -3923568.073
10 0 59618  70860.000000  0      -5890447.525      -1212078.962      -3544945.465
10 0 59618  70920.000000  0      -6118766.132      -1161793.662      -3151340.878
10 0 59618  70980.000000  0      -6320922.414      -1104746.146      -2744407.554
10 0 59618  71040.000000  0      -6495990.185      -1041405.379      -2325857.889
10 0 59618  71100.000000  0      -6643160.694       -972274.852      -1897456.310
10 0 59618  71160.000000  0      -6761746.811       -897889.522      -1461011.872
10 0 59618  71220.000000  0      -6851186.709       -818812.538      -1018370.528
10 0 59618  71280.000000  0      -6911046.892       -735631.741       -571407.135
10 0 59618  71340.000000  0      -6941024.556       -648956.022       -122017.336
10 0 59618  71400.000000  0      -6940949.361       -559411.596        327890.635
10 0 59618  71460.000000  0      -6910784.639       -467638.196        776404.292
10 0 59618  71520.000000  0      -6850627.926       -374285.178       1221615.330
10 0 59618  71580.000000  0      -6760710.791       -280007.565       1661628.062
10 0 59618  71640.000000  0      -6641398.024       -185462.058       2094567.786
10 0 59618  71700.000000  0      -6493186.164        -91303.040       2518589.092
10 0 59618  71760.000000  0      -6316701.377          1821.403       2931884.044
10 0 59618  71820.000000  0      -6112696.653         93273.414       3332690.188
10 0 59618  71880.000000  0      -5882048.385        182429.227       3719298.299
10 0 59618  71940.000000  0      -5625752.371        268682.915       4090059.876
99
